NORAD_CAT_ID,OBJECT_NAME,OBJECT_TYPE,EPOCH,MEAN_MOTION,ECCENTRICITY,INCLINATION,RA_OF_ASC_NODE,ARG_OF_PERICENTER,MEAN_ANOMALY,BSTAR,MEAN_MOTION_DOT,MEAN_MOTION_DDOT,TLE_LINE0,TLE_LINE1,TLE_LINE2,SEMIMAJOR_AXIS,PERIOD,APOGEE,PERIGEE,DECAYED
52630.0,STARLINK-3989,PAYLOAD,2022-06-09 14:00:01,15.73161433,0.0001023,53.2136,312.178,61.3298,218.1295,1.8646e-05,1.994e-05,0.0,0 STARLINK-3989,1 52630U 22052AJ  22160.58334491  .00001994  00000-0  18646-4 0  9997,2 52630  53.2136 312.1780 0001023  61.3298 218.1295 15.73161433  1301,6728.005,91.535,350.55800000000005,349.182,0.0
52630.0,STARLINK-3989,PAYLOAD,2022-06-09 20:00:01,15.73145331,0.0001131,53.2133,310.9422,50.6068,205.5271,0.0005808,0.00081494,0.0,0 STARLINK-3989,1 52630U 22052AJ  22160.83334491  .00081494  00000-0  58080-3 0  9993,2 52630  53.2133 310.9422 0001131  50.6068 205.5271 15.73145331  4477,6728.051,91.536,350.677,349.155,0.0
52630.0,STARLINK-3989,PAYLOAD,2022-06-09 22:00:00,15.73162074,0.0001106,53.2129,310.5296,47.8628,320.4892,0.00049228,0.00068924,0.0,0 STARLINK-3989,1 52630U 22052AJ  22160.91667824  .00068924  00000-0  49228-3 0  9998,2 52630  53.2129 310.5296 0001106  47.8628 320.4892 15.73162074  1307,6728.003000000002,91.535,350.612,349.124,0.0
52630.0,STARLINK-3989,PAYLOAD,2022-06-10 12:00:02,15.73263544,0.0001091,53.2134,307.6404,60.3942,13.6326,-0.00032459,-0.00046048,0.0,0 STARLINK-3989,1 52630U 22052AJ  22161.50002315 -.00046048  00000-0 -32459-3 0  9995,2 52630  53.2134 307.6404 0001091  60.3942  13.6326 15.73263544  4583,6727.714,91.529,350.31300000000016,348.845,0.0
52630.0,STARLINK-3989,PAYLOAD,2022-06-10 14:00:01,15.73279486,0.0001151,53.2134,307.2287,57.2669,128.9377,-0.00070204,-0.00098334,0.0,0 STARLINK-3989,1 52630U 22052AJ  22161.58334491 -.00098334  00000-0 -70204-3 0  9991,2 52630  53.2134 307.2287 0001151  57.2669 128.9377 15.73279486  1301,6727.669,91.529,350.30800000000005,348.759,0.0
52630.0,STARLINK-3989,PAYLOAD,2022-06-10 22:00:00,15.73205153,0.0001249,53.2131,305.5798,47.0655,228.1307,0.00028129,0.00039049,0.0,0 STARLINK-3989,1 52630U 22052AJ  22161.91667824  .00039049  00000-0  28129-3 0  9992,2 52630  53.2131 305.5798 0001249  47.0655 228.1307 15.73205153  1302,6727.88,91.533,350.586,348.905,0.0
52630.0,STARLINK-3989,PAYLOAD,2022-06-11 14:00:01,15.7321905,0.0001177,53.2131,302.2798,45.7909,47.2746,-0.00016064,-0.00023121,0.0,0 STARLINK-3989,1 52630U 22052AJ  22162.58334491 -.00023121  00000-0 -16064-3 0  9998,2 52630  53.2131 302.2798 0001177  45.7909  47.2746 15.73219050  4753,6727.840999999999,91.532,350.49800000000016,348.914,0.0
52630.0,STARLINK-3989,PAYLOAD,2022-06-11 22:00:00,15.73200625,0.0001344,53.2125,300.6306,42.084,139.9333,-4.5413e-05,-6.988e-05,0.0,0 STARLINK-3989,1 52630U 22052AJ  22162.91667824 -.00006988  00000-0 -45413-4 0  9997,2 52630  53.2125 300.6306 0001344  42.0840 139.9333 15.73200625  1300,6727.893,91.533,350.663,348.85400000000016,0.0
52630.0,STARLINK-3989,PAYLOAD,2022-06-12 14:00:01,15.73267378,0.0001257,53.2132,297.3305,43.9766,315.8994,-0.00075074,-0.00104978,0.0,0 STARLINK-3989,1 52630U 22052AJ  22163.58334491 -.00104978  00000-0 -75074-3 0  9995,2 52630  53.2132 297.3305 0001257  43.9766 315.8994 15.73267378  4904,6727.703,91.529,350.414,348.722,0.0
52630.0,STARLINK-3989,PAYLOAD,2022-06-12 20:00:01,15.73178009,0.0001624,53.2132,296.0942,45.4202,291.1801,0.00060024,0.00084391,0.0,0 STARLINK-3989,1 52630U 22052AJ  22163.83334491  .00084391  00000-0  60024-3 0  9996,2 52630  53.2132 296.0942 0001624  45.4202 291.1801 15.73178009  4946,6727.958000000001,91.534,350.915,348.73,0.0
52630.0,STARLINK-3989,PAYLOAD,2022-06-12 22:00:00,15.73221784,0.0001605,53.2131,295.6812,45.3541,43.4675,4.614e-05,5.865e-05,0.0,0 STARLINK-3989,1 52630U 22052AJ  22163.91667824  .00005865  00000-0  46140-4 0  9997,2 52630  53.2131 295.6812 0001605  45.3541  43.4675 15.73221784  1303,6727.833000000001,91.532,350.778,348.61800000000005,0.0
52630.0,STARLINK-3989,PAYLOAD,2022-06-13 04:00:00,15.73216438,0.0001307,53.2134,294.4424,46.4825,19.0743,-1.5918e-05,-2.855e-05,0.0,0 STARLINK-3989,1 52630U 22052AJ  22164.16667824 -.00002855  00000-0 -15918-4 0  9992,2 52630  53.2134 294.4424 0001307  46.4825  19.0743 15.73216438  5004,6727.848000000001,91.532,350.593,348.834,0.0
52630.0,STARLINK-3989,PAYLOAD,2022-06-13 14:00:01,15.73240742,0.0001404,53.2131,292.3818,37.6573,229.0816,-0.00054942,-0.00077159,0.0,0 STARLINK-3989,1 52630U 22052AJ  22164.58334491 -.00077159  00000-0 -54942-3 0  9997,2 52630  53.2131 292.3818 0001404  37.6573 229.0816 15.73240742  1303,6727.779,91.531,350.589,348.699,0.0
52630.0,STARLINK-3989,PAYLOAD,2022-06-13 22:00:00,15.7322513,0.0001489,53.2125,290.7323,31.4786,324.2149,-0.00032961,-0.00046673,0.0,0 STARLINK-3989,1 52630U 22052AJ  22164.91667824 -.00046673  00000-0 -32961-3 0  9997,2 52630  53.2125 290.7323 0001489  31.4786 324.2149 15.73225130  1301,6727.824000000001,91.532,350.69,348.68699999999984,0.0
52630.0,STARLINK-3989,PAYLOAD,2022-06-14 12:00:00,15.73250922,0.0001539,53.2132,287.8448,41.6331,19.6825,-0.00063415,-0.0008888,0.0,0 STARLINK-3989,1 52630U 22052AJ  22165.50001157 -.00088880  00000-0 -63415-3 0  9998,2 52630  53.2132 287.8448 0001539  41.6331  19.6825 15.73250922  5216,6727.75,91.53,350.65,348.58,0.0
52630.0,STARLINK-3989,PAYLOAD,2022-06-14 14:00:01,15.7322791,0.0001684,53.2127,287.4328,40.2446,133.3188,-0.00050681,-0.00071236,0.0,0 STARLINK-3989,1 52630U 22052AJ  22165.58334491 -.00071236  00000-0 -50681-3 0  9994,2 52630  53.2127 287.4328 0001684  40.2446 133.3188 15.73227910  1309,6727.816,91.532,350.814,348.548,0.0
52630.0,STARLINK-3989,PAYLOAD,2022-06-14 22:00:00,15.73162623,0.0001648,53.213,285.7833,33.5993,228.8653,-2.0283e-05,-3.461e-05,0.0,0 STARLINK-3989,1 52630U 22052AJ  22165.91667824 -.00003461  00000-0 -20283-4 0  9991,2 52630  53.2130 285.7833 0001648  33.5993 228.8653 15.73162623  1303,6728.002,91.535,350.976,348.7580000000001,0.0
52630.0,STARLINK-3989,PAYLOAD,2022-06-15 04:00:00,15.73128033,0.0001483,53.2132,284.5449,35.2304,203.8974,0.00065007,0.00091328,0.0,0 STARLINK-3989,1 52630U 22052AJ  22166.16667824  .00091328  00000-0  65007-3 0  9998,2 52630  53.2132 284.5449 0001483  35.2304 203.8974 15.73128033  5318,6728.1,91.537,350.963,348.968,0.0
52630.0,STARLINK-3989,PAYLOAD,2022-06-15 14:00:01,15.73212016,0.0001766,53.2131,282.4849,35.3286,44.9062,-5.2097e-05,-7.929e-05,0.0,0 STARLINK-3989,1 52630U 22052AJ  22166.58334491 -.00007929  00000-0 -52097-4 0  9997,2 52630  53.2131 282.4849 0001766  35.3286  44.9062 15.73212016  1304,6727.861,91.532,350.914,348.538,0.0
52630.0,STARLINK-3989,PAYLOAD,2022-06-15 20:00:01,15.73241085,0.0001903,53.213,281.2479,33.4393,23.5201,-0.0001784,-0.00025628,0.0,0 STARLINK-3989,1 52630U 22052AJ  22166.83334491 -.00025628  00000-0 -17840-3 0  9997,2 52630  53.2130 281.2479 0001903  33.4393  23.5201 15.73241085  5423,6727.778,91.531,350.923,348.36300000000006,0.0
52630.0,STARLINK-3989,PAYLOAD,2022-06-15 22:00:00,15.73238367,0.0001873,53.2131,280.835,35.0413,134.1621,-0.00020213,-0.0002894,0.0,0 STARLINK-3989,1 52630U 22052AJ  22166.91667824 -.00028940  00000-0 -20213-3 0  9993,2 52630  53.2131 280.8350 0001873  35.0413 134.1621 15.73238367  1301,6727.786,91.531,350.911,348.391,0.0
52630.0,STARLINK-3989,PAYLOAD,2022-06-16 02:00:01,15.7320003,0.0001723,53.2137,280.009,40.0567,353.6407,0.00057364,0.00080665,0.0,0 STARLINK-3989,1 52630U 22052AJ  22167.08334491  .00080665  00000-0  57364-3 0  9990,2 52630  53.2137 280.0090 0001723  40.0567 353.6407 15.73200030  1306,6727.895,91.533,350.9190000000001,348.601,0.0
52630.0,STARLINK-3989,PAYLOAD,2022-06-19 14:00:01,15.73238119,0.0002248,53.2129,262.6907,24.6953,42.7609,-0.00026139,-0.00037208,0.0,0 STARLINK-3989,1 52630U 22052AJ  22170.58334491 -.00037208  00000-0 -26139-3 0  9992,2 52630  53.2129 262.6907 0002248  24.6953  42.7609 15.73238119  1309,6727.786,91.531,351.164,348.139,0.0
52630.0,STARLINK-3989,PAYLOAD,2022-06-19 22:00:00,15.73212057,0.0002194,53.2124,261.0398,26.5897,129.8324,8.1109e-05,0.00010783,0.0,0 STARLINK-3989,1 52630U 22052AJ  22170.91667824  .00010783  00000-0  81109-4 0  9994,2 52630  53.2124 261.0398 0002194  26.5897 129.8324 15.73212057  1303,6727.861,91.532,351.202,348.25,0.0
52630.0,STARLINK-3989,PAYLOAD,2022-06-20 14:00:01,15.73204376,0.0002195,53.2129,257.7416,19.1937,315.1165,-0.00037399,-0.00052796,0.0,0 STARLINK-3989,1 52630U 22052AJ  22171.58334491 -.00052796  00000-0 -37399-3 0  9992,2 52630  53.2129 257.7416 0002195  19.1937 315.1165 15.73204376  1303,6727.8830000000025,91.533,351.224,348.271,0.0
52630.0,STARLINK-3989,PAYLOAD,2022-06-20 20:00:01,15.73186732,0.0002228,53.2128,256.5037,14.7231,296.2896,0.00017964,0.00024652,0.0,0 STARLINK-3989,1 52630U 22052AJ  22171.83334491  .00024652  00000-0  17964-3 0  9994,2 52630  53.2128 256.5037 0002228  14.7231 296.2896 15.73186732  6202,6727.933000000001,91.534,351.297,348.2990000000001,0.0
52630.0,STARLINK-3989,PAYLOAD,2022-06-20 22:00:00,15.73194288,0.000215,53.2129,256.0907,14.9973,48.2423,0.00017109,0.00023453,0.0,0 STARLINK-3989,1 52630U 22052AJ  22171.91667824  .00023453  00000-0  17109-3 0  9991,2 52630  53.2129 256.0907 0002150  14.9973  48.2423 15.73194288  1305,6727.911,91.534,351.223,348.33,0.0
52630.0,STARLINK-3989,PAYLOAD,2022-06-21 04:00:00,15.7320323,0.0002211,53.2174,254.8495,28.6913,11.1356,7.6541e-06,4.53e-06,0.0,0 STARLINK-3989,1 52630U 22052AJ  22172.16667824  .00000453  00000-0  76541-5 0  9991,2 52630  53.2174 254.8495 0002211  28.6913  11.1356 15.73203230  6269,6727.886,91.533,351.23900000000015,348.26300000000015,0.0
52630.0,STARLINK-3989,PAYLOAD,2022-06-21 12:00:00,15.73193941,0.00024,53.2127,253.2046,20.8687,108.0342,-5.276100000000001e-05,-8.018e-05,0.0,0 STARLINK-3989,1 52630U 22052AJ  22172.50001157 -.00008018  00000-0 -52761-4 0  9994,2 52630  53.2127 253.2046 0002400  20.8687 108.0342 15.73193941  6318,6727.9119999999975,91.534,351.392,348.163,0.0
